CTC1_L_00339016-03
1 47720U 22463JM  26037.47804398  .00000000  00000+0  00000-0 0  9997
2 47720  60.0000 180.0000 0000000   0.0000   0.0000 13.81096363    18
CTC1_L_00339016-04
1 47721U 22854LB  26037.47804398  .00000000  00000+0  00000-0 0  9992
2 47721  60.0000 180.0000 0000000   0.0000  90.0000 13.81096363    18
CTC1_L_00339017-01
1 47722U 26319ZY  26037.47804398  .00000000  00000+0  00000-0 0  9993
2 47722  60.0000 192.0000 0000000   0.0000 192.0000 13.81096363    15
CTC1_L_00339017-02
1 47723U 26506AQ  26037.47804398  .00000000  00000+0  00000-0 0  9992
2 47723  60.0000 192.0000 0000000   0.0000 282.0000 13.81096363    16
CTC1_L_00339017-03
1 47724U 23080IJ  26037.47804398  .00000000  00000+0  00000-0 0  9997
2 47724  60.0000 192.0000 0000000   0.0000  12.0000 13.81096363    18
CTC1_L_00339017-04
1 47725U 23964JU  26037.47804398  .00000000  00000+0  00000-0 0  9999
2 47725  60.0000 192.0000 0000000   0.0000 102.0000 13.81096363    19
CTC1_L_00339018-01
1 47726U 24320VX  26037.47804398  .00000000  00000+0  00000-0 0  9997
2 47726  60.0000 204.0000 0000000   0.0000 204.0000 13.81096363    17
CTC1_L_00339018-02
1 47727U 23148DC  26037.47804398  .00000000  00000+0  00000-0 0  9995
2 47727  60.0000 204.0000 0000000   0.0000 294.0000 13.81096363    17
CTC1_L_00339018-03
1 47728U 22675T   26037.47804398  .00000000  00000+0  00000-0 0  9990
2 47728  60.0000 204.0000 0000000   0.0000  24.0000 13.81096363    19
CTC1_L_00339018-04
1 47729U 23859EV  26037.47804398  .00000000  00000+0  00000-0 0  9996
2 47729  60.0000 204.0000 0000000   0.0000 114.0000 13.81096363    10
CTC1_L_00339019-01
1 47730U 22335GR  26037.47804398  .00000000  00000+0  00000-0 0  9996
2 47730  60.0000 216.0000 0000000   0.0000 216.0000 13.81096363    18
CTC1_L_00339019-02
1 47731U 22393XQ  26037.47804398  .00000000  00000+0  00000-0 0  9991
2 47731  60.0000 216.0000 0000000   0.0000 306.0000 13.81096363    19
CTC1_L_00339019-03
1 47732U 26382VF  26037.47804398  .00000000  00000+0  00000-0 0  9994
2 47732  60.0000 216.0000 0000000   0.0000  36.0000 13.81096363    10
CTC1_L_00339019-04
1 47733U 24903BU  26037.47804398  .00000000  00000+0  00000-0 0  9992
2 47733  60.0000 216.0000 0000000   0.0000 126.0000 13.81096363    11
CTC1_L_00339020-01
1 47734U 25249I   26037.47804398  .00000000  00000+0  00000-0 0  9997
2 47734  60.0000 228.0000 0000000   0.0000 228.0000 13.81096363    18
CTC1_L_00339020-02
1 47735U 26895XK  26037.47804398  .00000000  00000+0  00000-0 0  9996
2 47735  60.0000 228.0000 0000000   0.0000 318.0000 13.81096363    19
CTC1_L_00339020-03
1 47736U 26830UC  26037.47804398  .00000000  00000+0  00000-0 0  9996
2 47736  60.0000 228.0000 0000000   0.0000  48.0000 13.81096363    10
CTC1_L_00339020-04
1 47737U 22217LG  26037.47804398  .00000000  00000+0  00000-0 0  9992
2 47737  60.0000 228.0000 0000000   0.0000 138.0000 13.81096363    11
CTC1_L_00339021-01
1 47738U 23596AH  26037.47804398  .00000000  00000+0  00000-0 0  9994
2 47738  60.0000 240.0000 0000000   0.0000 240.0000 13.81096363    10
CTC1_L_00339021-02
1 47739U 26099RZ  26037.47804398  .00000000  00000+0  00000-0 0  9996
2 47739  60.0000 240.0000 0000000   0.0000 330.0000 13.81096363    11
CTC1_L_00339021-03
1 47740U 22298GJ  26037.47804398  .00000000  00000+0  00000-0 0  9995
2 47740  60.0000 240.0000 0000000   0.0000  60.0000 13.81096363    13
CTC1_L_00339021-04
1 47741U 24384VT  26037.47804398  .00000000  00000+0  00000-0 0  9994
2 47741  60.0000 240.0000 0000000   0.0000 150.0000 13.81096363    14
CTC1_L_00339022-01
1 47742U 23511QS  26037.47804398  .00000000  00000+0  00000-0 0  9996
2 47742  60.0000 252.0000 0000000   0.0000 252.0000 13.81096363    11
CTC1_L_00339022-02
1 47743U 26467NC  26037.47804398  .00000000  00000+0  00000-0 0  9990
2 47743  60.0000 252.0000 0000000   0.0000 342.0000 13.81096363    12
CTC1_L_00339022-03
1 47744U 25933QO  26037.47804398  .00000000  00000+0  00000-0 0  9998
2 47744  60.0000 252.0000 0000000   0.0000  72.0000 13.81096363    13
CTC1_L_00339022-04
1 47745U 24505VT  26037.47804398  .00000000  00000+0  00000-0 0  9993
2 47745  60.0000 252.0000 0000000   0.0000 162.0000 13.81096363    14
CTC1_L_00339023-01
1 47746U 26663IO  26037.47804398  .00000000  00000+0  00000-0 0  9991
2 47746  60.0000 264.0000 0000000   0.0000 264.0000 13.81096363    11
CTC1_L_00339023-02
1 47747U 23819PF  26037.47804398  .00000000  00000+0  00000-0 0  9992
2 47747  60.0000 264.0000 0000000   0.0000 354.0000 13.81096363    12
CTC1_L_00339023-03
1 47748U 25679GH  26037.47804398  .00000000  00000+0  00000-0 0  9999
2 47748  60.0000 264.0000 0000000   0.0000  84.0000 13.81096363    13
CTC1_L_00339023-04
1 47749U 22521LV  26037.47804398  .00000000  00000+0  00000-0 0  9993
2 47749  60.0000 264.0000 0000000   0.0000 174.0000 13.81096363    14
CTC1_L_00339024-01
1 47750U 24699VP  26037.47804398  .00000000  00000+0  00000-0 0  9993
2 47750  60.0000 276.0000 0000000   0.0000 276.0000 13.81096363    12
CTC1_L_00339024-02
1 47751U 22577GJ  26037.47804398  .00000000  00000+0  00000-0 0  9997
2 47751  60.0000 276.0000 0000000   0.0000   6.0000 13.81096363    14
CTC1_L_00339024-03
1 47752U 23164VT  26037.47804398  .00000000  00000+0  00000-0 0  9991
2 47752  60.0000 276.0000 0000000   0.0000  96.0000 13.81096363    14
CTC1_L_00339024-04
1 47753U 26440HO  26037.47804398  .00000000  00000+0  00000-0 0  9992
2 47753  60.0000 276.0000 0000000   0.0000 186.0000 13.81096363    15
CTC1_L_00339025-01
1 47754U 26229OV  26037.47804398  .00000000  00000+0  00000-0 0  9998
2 47754  60.0000 288.0000 0000000   0.0000 288.0000 13.81096363    12
CTC1_L_00339025-02
1 47755U 22452C   26037.47804398  .00000000  00000+0  00000-0 0  9993
2 47755  60.0000 288.0000 0000000   0.0000  18.0000 13.81096363    14
CTC1_L_00339025-03
1 47756U 23602L   26037.47804398  .00000000  00000+0  00000-0 0  9992
2 47756  60.0000 288.0000 0000000   0.0000 108.0000 13.81096363    15
CTC1_L_00339025-04
1 47757U 26436JT  26037.47804398  .00000000  00000+0  00000-0 0  9991
2 47757  60.0000 288.0000 0000000   0.0000 198.0000 13.81096363    15
CTC1_L_00339026-01
1 47758U 24847BG  26037.47804398  .00000000  00000+0  00000-0 0  9996
2 47758  60.0000 300.0000 0000000   0.0000 300.0000 13.81096363    16
CTC1_L_00339026-02
1 47759U 24718LL  26037.47804398  .00000000  00000+0  00000-0 0  9994
2 47759  60.0000 300.0000 0000000   0.0000  30.0000 13.81096363    17
CTC1_L_00339026-03
1 47760U 24307JG  26037.47804398  .00000000  00000+0  00000-0 0  9990
2 47760  60.0000 300.0000 0000000   0.0000 120.0000 13.81096363    19
CTC1_L_00339026-04
1 47761U 23304QR  26037.47804398  .00000000  00000+0  00000-0 0  9997
2 47761  60.0000 300.0000 0000000   0.0000 210.0000 13.81096363    10
CTC1_L_00339027-01
1 47762U 23039EL  26037.47804398  .00000000  00000+0  00000-0 0  9993
2 47762  60.0000 312.0000 0000000   0.0000 312.0000 13.81096363    17
CTC1_L_00339027-02
1 47763U 23619XS  26037.47804398  .00000000  00000+0  00000-0 0  9998
2 47763  60.0000 312.0000 0000000   0.0000  42.0000 13.81096363    18
CTC1_L_00339027-03
1 47764U 24141MI  26037.47804398  .00000000  00000+0  00000-0 0  9990
2 47764  60.0000 312.0000 0000000   0.0000 132.0000 13.81096363    19
CTC1_L_00339027-04
1 47765U 25291S   26037.47804398  .00000000  00000+0  00000-0 0  9998
2 47765  60.0000 312.0000 0000000   0.0000 222.0000 13.81096363    10
CTC1_L_00339028-01
1 47766U 22008WV  26037.47804398  .00000000  00000+0  00000-0 0  9992
2 47766  60.0000 324.0000 0000000   0.0000 324.0000 13.81096363    17
CTC1_L_00339028-02
1 47767U 26704KX  26037.47804398  .00000000  00000+0  00000-0 0  9990
2 47767  60.0000 324.0000 0000000   0.0000  54.0000 13.81096363    18
CTC1_L_00339028-03
1 47768U 25749WJ  26037.47804398  .00000000  00000+0  00000-0 0  9999
2 47768  60.0000 324.0000 0000000   0.0000 144.0000 13.81096363    19
CTC1_L_00339028-04
1 47769U 22183GK  26037.47804398  .00000000  00000+0  00000-0 0  9999
2 47769  60.0000 324.0000 0000000   0.0000 234.0000 13.81096363    10
CTC1_L_00339029-01
1 47770U 22395NA  26037.47804398  .00000000  00000+0  00000-0 0  9996
2 47770  60.0000 336.0000 0000000   0.0000 336.0000 13.81096363    18
CTC1_L_00339029-02
1 47771U 23298FY  26037.47804398  .00000000  00000+0  00000-0 0  9990
2 47771  60.0000 336.0000 0000000   0.0000  66.0000 13.81096363    19
CTC1_L_00339029-03
1 47772U 25661FX  26037.47804398  .00000000  00000+0  00000-0 0  9997
2 47772  60.0000 336.0000 0000000   0.0000 156.0000 13.81096363    10
CTC1_L_00339029-04
1 47773U 22789NY  26037.47804398  .00000000  00000+0  00000-0 0  9996
2 47773  60.0000 336.0000 0000000   0.0000 246.0000 13.81096363    11
CTC1_L_00339030-01
1 47774U 22257DL  26037.47804398  .00000000  00000+0  00000-0 0  9997
2 47774  60.0000 348.0000 0000000   0.0000 348.0000 13.81096363    18
CTC1_L_00339030-02
1 47775U 24322DY  26037.47804398  .00000000  00000+0  00000-0 0  9993
2 47775  60.0000 348.0000 0000000   0.0000  78.0000 13.81096363    19
CTC1_L_00339030-03
1 47776U 24433RS  26037.47804398  .00000000  00000+0  00000-0 0  9997
2 47776  60.0000 348.0000 0000000   0.0000 168.0000 13.81096363    10
CTC1_L_00339030-04
1 47777U 23330OA  26037.47804398  .00000000  00000+0  00000-0 0  9993
2 47777  60.0000 348.0000 0000000   0.0000 258.0000 13.81096363    11
